[Satellite]
VERSION=1.1
NAME=GSAT-18
NICKNAME=GSAT-18
TLE1=1 41793U 16060A   17186.00816214 -.00000082  00000-0  00000-0 0  9993
TLE2=2 41793   0.0480 106.2345 0008585 344.5078 269.3488  1.00272258  2757
